SAUDICOMSAT 3           
1 31125U 07012J   17345.92288362  .00000073  00000-0  22160-4 0  9997
2 31125  97.8951 311.2543 0043946 153.2055 207.1432 14.65046924569100
